SKYKRAFT-1A             
1 55054U 23001AX  26068.71064616  .00008177  00000+0  30069-3 0  9991
2 55054  97.3349 127.6290 0011277 121.5092 238.7251 15.28083228176529
STARLINK-31612          
1 59337U 24057T   26068.39396130  .00000716  00000+0  35552-4 0  9998
2 59337  43.0000 188.7578 0001722 286.8576  73.2087 15.27578998109798
